SL-8 R/B                
1 21088U 91006B   26085.64220931  .00000078  00000+0  62610-4 0  9996
2 21088  82.9449 157.4427 0021990 351.4058 173.4014 13.77496732766406
OKEAN-3                 
1 21397U 91039A   26085.36878950  .00001988  00000+0  13841-3 0  9996
2 21397  82.5165 320.6838 0012332 274.9268  85.0551 15.04901773867541
COSMOS 2151             
1 21422U 91042A   26085.89250258  .00002738  00000+0  21684-3 0  9990
2 21422  82.4944  67.0765 0012649   9.7232 350.4234 15.00176126865773
SL-14 R/B               
1 21423U 91042B   26085.70663196  .00000460  00000+0  55142-4 0  9997
2 21423  82.4954 204.2280 0017033 180.3166 179.8041 14.81846195855592
ERS-1                   
1 21574U 91050A   26085.51893193  .00000298  00000+0  10977-3 0  9999
2 21574  98.7869 104.1758 0032573 150.6960 209.6062 14.39461613818157
ARIANE 40 R/B           
1 21610U 91050F   26085.73788052  .00000281  00000+0  96621-4 0  9994
2 21610  98.1977 137.3317 0003651  42.8634 317.2841 14.42905564821456
INTERCOSMOS 25          
1 21819U 91086A   26085.58000559  .00001361  00000+0  25958-3 0  9990
2 21819  82.6019 299.7977 1486615  80.5409 296.0044 12.12055207498737
SL-8 R/B                
1 21876U 92008B   26085.89294981  .00000031  00000+0  15606-4 0  9999
2 21876  82.9229 254.9771 0035975  86.9205  23.3391 13.75969571711780
SL-8 R/B                
1 21938U 92020B   26085.41209479  .00000028  00000+0  13639-4 0  9998
2 21938  82.9309 141.3460 0027679 249.8780 121.0421 13.75550460703438
USA 81                  
1 21949U 92023A   26085.56434170  .00000163  00000+0  52994-4 0  9994
2 21949  85.0051 121.7033 0001874  68.1594 291.9798 14.32373245 97203
COSMOS 2219             
1 22219U 92076A   26085.42738428 -.00000229  00000+0 -95603-4 0  9990
2 22219  71.0628 343.0826 0018031 182.7023 177.4005 14.14091646720744
SL-16 R/B               
1 22220U 92076B   26085.66027576 -.00000001  00000+0  23477-4 0  9990
2 22220  71.0001 152.6285 0010653  64.5773  97.4300 14.16863960724230
COSMOS 2221             
1 22236U 92080A   26085.82457602  .00002463  00000+0  21540-3 0  9998
2 22236  82.5007 262.6624 0015394 131.6372 228.6171 14.96269147783354
SL-16 R/B               
1 22285U 92093B   26085.84166881  .00000270  00000+0  16243-3 0  9992
2 22285  71.0232 328.2620 0006433 276.9005  83.1386 14.15453470715583
COSMOS 2228             
1 22286U 92094A   26085.82949012  .00002563  00000+0  21848-3 0  9991
2 22286  82.5183 220.8990 0016739 241.9796 117.9734 14.97275210778623
SL-16 R/B               
1 22566U 93016B   26085.67175404 -.00000120  00000+0 -37174-4 0  9995
2 22566  71.0078 179.5163 0012341 292.2002  67.7812 14.15305436704572
COSMOS 2242             
1 22626U 93024A   26085.41793449  .00002059  00000+0  17814-3 0  9997
2 22626  82.5160 250.7107 0014972 247.1251 112.8391 14.96617979782897
